NORAD_CAT_ID,OBJECT_NAME,OBJECT_TYPE,EPOCH,MEAN_MOTION,ECCENTRICITY,INCLINATION,RA_OF_ASC_NODE,ARG_OF_PERICENTER,MEAN_ANOMALY,BSTAR,MEAN_MOTION_DOT,MEAN_MOTION_DDOT,TLE_LINE0,TLE_LINE1,TLE_LINE2,SEMIMAJOR_AXIS,PERIOD,APOGEE,PERIGEE,DECAYED
52379.0,STARLINK-3800,PAYLOAD,2022-06-01 20:00:01,15.73189539,0.0001661,53.2153,273.1775,34.3567,164.4887,2.3721e-05,2.708e-05,0.0,0 STARLINK-3800,1 52379U 22045BA  22152.83334491  .00002708  00000-0  23721-4 0  9992,2 52379  53.2153 273.1775 0001661  34.3567 164.4887 15.73189539  7737,6727.925,91.534,350.908,348.672,0.0
52379.0,STARLINK-3800,PAYLOAD,2022-06-02 16:30:14,15.7321517,0.0001031,53.2161,268.9483,52.5483,307.5631,-5.7961e-06,-1.433e-05,0.0,0 STARLINK-3800,1 52379U 22045BA  22153.68766909 -.00001433  00000-0 -57961-5 0  9999,2 52379  53.2161 268.9483 0001031  52.5483 307.5631 15.73215170  7877,6727.852,91.532,350.411,349.023,0.0
52379.0,STARLINK-3800,PAYLOAD,2022-06-02 19:33:12,15.73201793,0.0001862,53.216,268.3194,41.1887,318.9274,-2.4627e-05,-4.076e-05,0.0,0 STARLINK-3800,1 52379U 22045BA  22153.81472924 -.00004076  00000-0 -24627-4 0  9993,2 52379  53.2160 268.3194 0001862  41.1887 318.9274 15.73201793  7890,6727.89,91.533,351.0080000000001,348.50199999999984,0.0
52379.0,STARLINK-3800,PAYLOAD,2022-06-03 13:50:58,15.73223031,0.0001564,53.2157,264.5473,34.2997,325.8124,9.9089e-05,0.00013322,0.0,0 STARLINK-3800,1 52379U 22045BA  22154.57706319  .00013322  00000-0  99089-4 0  9991,2 52379  53.2157 264.5473 0001564  34.2997 325.8124 15.73223031  8013,6727.83,91.532,350.747,348.642,0.0
52379.0,STARLINK-3800,PAYLOAD,2022-06-03 16:53:55,15.73217972,0.0001653,53.2151,263.9185,29.4431,330.6682,9.663e-05,0.00012972,0.0,0 STARLINK-3800,1 52379U 22045BA  22154.70411928  .00012972  00000-0  96630-4 0  9994,2 52379  53.2151 263.9185 0001653  29.4431 330.6682 15.73217972  8030,6727.844,91.532,350.821,348.597,0.0
52379.0,STARLINK-3800,PAYLOAD,2022-06-04 00:31:19,15.73220665,0.0001631,53.215,262.3457,29.6579,330.4534,8.479700000000001e-05,0.00011307,0.0,0 STARLINK-3800,1 52379U 22045BA  22155.02175694  .00011307  00000-0  84797-4 0  9999,2 52379  53.2150 262.3457 0001631  29.6579 330.4534 15.73220665  8087,6727.8359999999975,91.532,350.7990000000001,348.60400000000016,0.0
52379.0,STARLINK-3800,PAYLOAD,2022-06-04 11:11:41,15.73217552,0.0001975,53.2154,260.1462,38.5568,321.5593,4.4684e-05,5.659e-05,0.0,0 STARLINK-3800,1 52379U 22045BA  22155.46645263  .00005659  00000-0  44684-4 0  9995,2 52379  53.2154 260.1462 0001975  38.5568 321.5593 15.73217552  8156,6727.845,91.532,351.039,348.381,0.0
52379.0,STARLINK-3800,PAYLOAD,2022-06-05 22:00:00,15.73258186,0.0001983,53.2141,252.9702,25.8,272.5306,-0.00069309,-0.00097027,0.0,0 STARLINK-3800,1 52379U 22045BA  22156.91667824 -.00097027  00000-0 -69309-3 0  9995,2 52379  53.2141 252.9702 0001983  25.8000 272.5306 15.73258186  8376,6727.729,91.53,350.92800000000005,348.26,0.0
52379.0,STARLINK-3800,PAYLOAD,2022-06-06 14:00:01,15.73201825,0.0002146,53.2138,249.6721,25.4842,90.7437,-2.5062e-05,-4.138e-05,0.0,0 STARLINK-3800,1 52379U 22045BA  22157.58334491 -.00004138  00000-0 -25062-4 0  9990,2 52379  53.2138 249.6721 0002146  25.4842  90.7437 15.73201825  8483,6727.89,91.533,351.199,348.311,0.0
52379.0,STARLINK-3800,PAYLOAD,2022-06-06 22:00:00,15.73220551,0.0002149,53.2134,248.0214,27.6029,177.5729,-0.0004171,-0.00058809,0.0,0 STARLINK-3800,1 52379U 22045BA  22157.91667824 -.00058809  00000-0 -41710-3 0  9997,2 52379  53.2134 248.0214 0002149  27.6029 177.5729 15.73220551  1302,6727.837,91.532,351.147,348.256,0.0
52379.0,STARLINK-3800,PAYLOAD,2022-06-07 14:00:01,15.73243811,0.000228,53.2141,244.7233,27.1362,355.9009,-0.00046515,-0.00065527,0.0,0 STARLINK-3800,1 52379U 22045BA  22158.58334491 -.00065527  00000-0 -46515-3 0  9995,2 52379  53.2141 244.7233 0002280  27.1362 355.9009 15.73243811  8646,6727.77,91.531,351.1690000000001,348.101,0.0
52379.0,STARLINK-3800,PAYLOAD,2022-06-07 22:00:00,15.73233187,0.0002169,53.2139,243.0723,21.6081,90.4052,-0.00017153,-0.00024661,0.0,0 STARLINK-3800,1 52379U 22045BA  22158.91667824 -.00024661  00000-0 -17153-3 0  9991,2 52379  53.2139 243.0723 0002169  21.6081  90.4052 15.73233187  8691,6727.801,91.531,351.125,348.206,0.0
52379.0,STARLINK-3800,PAYLOAD,2022-06-08 14:00:01,15.73216472,0.000235,53.2137,239.7746,20.7034,269.178,-0.00042246,-0.00059543,0.0,0 STARLINK-3800,1 52379U 22045BA  22159.58334491 -.00059543  00000-0 -42246-3 0  9994,2 52379  53.2137 239.7746 0002350  20.7034 269.1780 15.73216472  1308,6727.848000000001,91.532,351.2940000000001,348.13199999999995,0.0
52379.0,STARLINK-3800,PAYLOAD,2022-06-08 22:00:01,15.73185609,0.0002195,53.2135,238.1235,20.8946,357.9673,-0.0007823999999999,-0.00108963,0.0,0 STARLINK-3800,1 52379U 22045BA  22159.91668981 -.00108963  00000-0 -78240-3 0  9999,2 52379  53.2135 238.1235 0002195  20.8946 357.9673 15.73185609  8853,6727.936,91.534,351.278,348.324,0.0
52379.0,STARLINK-3800,PAYLOAD,2022-06-09 06:00:00,15.73122279,0.0002112,53.2139,236.4734,22.1294,85.5329,0.00028727,0.00039755,0.0,0 STARLINK-3800,1 52379U 22045BA  22160.25001157  .00039755  00000-0  28727-3 0  9999,2 52379  53.2139 236.4734 0002112  22.1294  85.5329 15.73122279  8904,6728.1169999999975,91.538,351.403,348.561,0.0
52379.0,STARLINK-3800,PAYLOAD,2022-06-09 14:00:01,15.73116757,0.0002447,53.2141,234.8261,19.383,177.1198,0.00042567,0.00059334,0.0,0 STARLINK-3800,1 52379U 22045BA  22160.58334491  .00059334  00000-0  42567-3 0  9998,2 52379  53.2141 234.8261 0002447  19.3830 177.1198 15.73116757  1302,6728.1330000000025,91.538,351.644,348.351,0.0
52379.0,STARLINK-3800,PAYLOAD,2022-06-09 22:00:00,15.73177933,0.0002347,53.214,233.1752,19.8454,265.5255,8.802799999999999e-05,0.00011739,0.0,0 STARLINK-3800,1 52379U 22045BA  22160.91667824  .00011739  00000-0  88028-4 0  9994,2 52379  53.2140 233.1752 0002347  19.8454 265.5255 15.73177933  1303,6727.958000000001,91.534,351.402,348.244,0.0
52379.0,STARLINK-3800,PAYLOAD,2022-06-10 08:00:01,15.73210818,0.0002383,53.2139,231.1133,21.7575,104.7332,-1.412e-05,-2.604e-05,0.0,0 STARLINK-3800,1 52379U 22045BA  22161.33334491 -.00002604  00000-0 -14120-4 0  9997,2 52379  53.2139 231.1133 0002383  21.7575 104.7332 15.73210818  9070,6727.864000000001,91.533,351.333,348.126,0.0
52379.0,STARLINK-3800,PAYLOAD,2022-06-10 14:00:01,15.73191518,0.0002586,53.2137,229.8775,20.6078,82.6012,0.0004586,0.00064218,0.0,0 STARLINK-3800,1 52379U 22045BA  22161.58334491  .00064218  00000-0  45860-3 0  9995,2 52379  53.2137 229.8775 0002586  20.6078  82.6012 15.73191518  1307,6727.919,91.534,351.524,348.045,0.0
52379.0,STARLINK-3800,PAYLOAD,2022-06-10 22:00:00,15.73267579,0.0002393,53.2135,228.2261,19.9437,172.2241,-0.00026229,-0.00037381,0.0,0 STARLINK-3800,1 52379U 22045BA  22161.91667824 -.00037381  00000-0 -26229-3 0  9992,2 52379  53.2135 228.2261 0002393  19.9437 172.2241 15.73267579  9167,6727.703,91.529,351.177,347.958,0.0
52379.0,STARLINK-3800,PAYLOAD,2022-06-11 22:00:00,15.73206059,0.0002427,53.2137,223.2772,11.1349,87.9574,0.00027008,0.00037465,0.0,0 STARLINK-3800,1 52379U 22045BA  22162.91667824  .00037465  00000-0  27008-3 0  9990,2 52379  53.2137 223.2772 0002427  11.1349  87.9574 15.73206059  9320,6727.878000000002,91.533,351.376,348.11,0.0
52379.0,STARLINK-3800,PAYLOAD,2022-06-12 14:00:01,15.72893147,0.0002582,53.2169,219.9772,15.8445,261.1045,0.0034193,0.00502474,0.0,0 STARLINK-3800,1 52379U 22045BA  22163.58334491  .00502474  00000-0  34193-2 0  9994,2 52379  53.2169 219.9772 0002582  15.8445 261.1045 15.72893147  9426,6728.77,91.551,352.37300000000016,348.898,0.0
52379.0,STARLINK-3800,PAYLOAD,2022-06-12 22:00:00,15.73237057,0.0002505,53.2127,218.3285,16.9371,348.9912,-0.00033084,-0.00046876,0.0,0 STARLINK-3800,1 52379U 22045BA  22163.91667824 -.00046876  00000-0 -33084-3 0  9990,2 52379  53.2127 218.3285 0002505  16.9371 348.9912 15.73237057  1306,6727.79,91.531,351.34,347.969,0.0
52379.0,STARLINK-3800,PAYLOAD,2022-06-13 06:00:02,15.73254151,0.0002529,53.2128,216.6791,15.2273,79.7126,-0.00039625,-0.00056003,0.0,0 STARLINK-3800,1 52379U 22045BA  22164.25002315 -.00056003  00000-0 -39625-3 0  9996,2 52379  53.2128 216.6791 0002529  15.2273  79.7126 15.73254151  9532,6727.741,91.53,351.307,347.904,0.0
52379.0,STARLINK-3800,PAYLOAD,2022-06-13 14:00:01,15.73167476,0.0002796,53.213,215.0312,11.2102,172.6603,0.00070719,0.00099687,0.0,0 STARLINK-3800,1 52379U 22045BA  22164.58334491  .00099687  00000-0  70719-3 0  9997,2 52379  53.2130 215.0312 0002796  11.2102 172.6603 15.73167476  1303,6727.988,91.535,351.7340000000001,347.972,0.0
52379.0,STARLINK-3800,PAYLOAD,2022-06-13 22:00:00,15.73246878,0.0002658,53.2135,213.3797,14.2193,258.5995,-0.00032456,-0.00046024,0.0,0 STARLINK-3800,1 52379U 22045BA  22164.91667824 -.00046024  00000-0 -32456-3 0  9998,2 52379  53.2135 213.3797 0002658  14.2193 258.5995 15.73246878  9632,6727.762,91.53,351.415,347.838,0.0
52379.0,STARLINK-3800,PAYLOAD,2022-06-14 14:00:01,15.73146682,0.0002865,53.2144,210.0818,11.1415,79.6035,0.00016652,0.00022762,0.0,0 STARLINK-3800,1 52379U 22045BA  22165.58334491  .00022762  00000-0  16652-3 0  9994,2 52379  53.2144 210.0818 0002865  11.1415  79.6035 15.73146682  1308,6728.047,91.536,351.84,347.985,0.0
52379.0,STARLINK-3800,PAYLOAD,2022-06-14 22:00:00,15.73118634,0.000262,53.2134,208.431,8.2026,171.385,0.00049063,0.00068567,0.0,0 STARLINK-3800,1 52379U 22045BA  22165.91667824  .00068567  00000-0  49063-3 0  9995,2 52379  53.2134 208.4310 0002620   8.2026 171.3850 15.73118634  1300,6728.127,91.538,351.755,348.22900000000016,0.0
52379.0,STARLINK-3800,PAYLOAD,2022-06-15 06:00:00,15.73183821,0.0002664,53.2135,206.7822,10.6,257.8418,0.00012517,0.00016971,0.0,0 STARLINK-3800,1 52379U 22045BA  22166.25001157  .00016971  00000-0  12517-3 0  9990,2 52379  53.2135 206.7822 0002664  10.6000 257.8418 15.73183821  9844,6727.941,91.534,351.599,348.014,0.0
